{"type":"Feature","properties":{"naam":"Nederland"},"geometry":{"type":"MultiPolygon","coordinates":[[[[6.71,52.628],[6.742,52.645],[6.777,52.652],[6.822,52.648],[6.897,52.651],[6.919,52.64],[6.939,52.638],[6.975,52.646],[7.042,52.633],[7.055,52.644],[7.064,52.723],[7.072,52.81],[7.093,52.838],[7.087,52.85],[7.104,52.864],[7.182,52.942],[7.213,53.011],[7.199,53.081],[7.203,53.113],[7.183,53.122],[7.179,53.139],[7.191,53.162],[7.218,53.198],[7.217,53.215],[7.206,53.236],[7.156,53.243],[7.134,53.25],[7.104,53.252],[7.078,53.267],[7.084,53.298],[7.027,53.302],[6.968,53.319],[6.934,53.333],[6.897,53.356],[6.888,53.396],[6.874,53.408],[6.882,53.44],[6.865,53.45],[6.814,53.463],[6.798,53.455],[6.746,53.466],[6.696,53.462],[6.634,53.451],[6.599,53.438],[6.547,53.429],[6.538,53.431],[6.415,53.422],[6.368,53.416],[6.34,53.408],[6.306,53.393],[6.298,53.4],[6.261,53.414],[6.244,53.415],[6.199,53.408],[6.177,53.415],[6.139,53.404],[6.095,53.408],[6.016,53.403],[5.933,53.388],[5.888,53.391],[5.86,53.384],[5.779,53.356],[5.756,53.353],[5.68,53.328],[5.587,53.3],[5.562,53.285],[5.527,53.257],[5.483,53.241],[5.449,53.22],[5.42,53.182],[5.404,53.122],[5.379,53.108],[5.378,53.095],[5.349,53.078],[5.293,53.067],[5.166,53],[5.054,52.941],[4.968,52.93],[4.935,52.903],[4.909,52.894],[4.875,52.888],[4.809,52.911],[4.791,52.936],[4.802,52.953],[4.779,52.955],[4.763,52.965],[4.731,52.963],[4.717,52.947],[4.711,52.893],[4.706,52.875],[4.667,52.787],[4.643,52.751],[4.637,52.729],[4.638,52.708],[4.627,52.665],[4.615,52.596],[4.593,52.513],[4.575,52.479],[4.605,52.467],[4.554,52.461],[4.562,52.446],[4.555,52.423],[4.494,52.328],[4.447,52.267],[4.374,52.187],[4.332,52.15],[4.303,52.129],[4.261,52.103],[4.225,52.074],[4.192,52.052],[4.137,52.01],[4.093,51.985],[4.047,51.994],[4.042,51.986],[4.004,51.989],[3.984,51.985],[3.965,51.967],[3.963,51.954],[3.984,51.918],[3.999,51.915],[4.04,51.924],[4.053,51.918],[4.029,51.886],[4.068,51.849],[4.036,51.824],[4,51.849],[3.948,51.84],[3.909,51.827],[3.892,51.826],[3.86,51.814],[3.855,51.803],[3.865,51.782],[3.86,51.771],[3.823,51.75],[3.799,51.744],[3.764,51.743],[3.71,51.731],[3.689,51.72],[3.679,51.707],[3.689,51.678],[3.722,51.663],[3.714,51.642],[3.698,51.639],[3.683,51.623],[3.681,51.6],[3.634,51.589],[3.599,51.594],[3.552,51.59],[3.438,51.542],[3.433,51.528],[3.46,51.51],[3.496,51.494],[3.527,51.463],[3.575,51.439],[3.64,51.444],[3.658,51.457],[3.692,51.444],[3.721,51.426],[3.735,51.411],[3.755,51.415],[3.79,51.4],[3.812,51.386],[3.858,51.391],[3.876,51.397],[3.901,51.395],[3.926,51.434],[3.921,51.445],[3.975,51.462],[3.987,51.454],[4.033,51.432],[4.05,51.43],[4.062,51.414],[4.107,51.403],[4.157,51.395],[4.197,51.407],[4.232,51.395],[4.243,51.375],[4.277,51.376],[4.335,51.378],[4.341,51.358],[4.385,51.354],[4.422,51.365],[4.432,51.375],[4.392,51.408],[4.384,51.421],[4.395,51.427],[4.397,51.442],[4.385,51.449],[4.442,51.469],[4.487,51.477],[4.538,51.482],[4.548,51.473],[4.53,51.45],[4.535,51.423],[4.575,51.433],[4.63,51.426],[4.67,51.426],[4.667,51.444],[4.693,51.452],[4.717,51.469],[4.729,51.484],[4.753,51.5],[4.783,51.5],[4.815,51.495],[4.821,51.483],[4.84,51.479],[4.836,51.461],[4.823,51.449],[4.829,51.423],[4.787,51.433],[4.767,51.431],[4.771,51.415],[4.789,51.409],[4.84,51.415],[4.886,51.417],[4.929,51.396],[4.963,51.422],[5.004,51.445],[5.011,51.472],[5.022,51.482],[5.046,51.471],[5.079,51.471],[5.105,51.431],[5.071,51.393],[5.117,51.361],[5.132,51.347],[5.134,51.316],[5.163,51.31],[5.2,51.323],[5.242,51.305],[5.226,51.268],[5.238,51.261],[5.263,51.267],[5.296,51.261],[5.336,51.263],[5.346,51.276],[5.417,51.262],[5.442,51.282],[5.465,51.285],[5.485,51.3],[5.516,51.295],[5.558,51.262],[5.555,51.244],[5.56,51.222],[5.646,51.2],[5.658,51.185],[5.708,51.182],[5.74,51.187],[5.767,51.184],[5.778,51.151],[5.824,51.168],[5.836,51.154],[5.856,51.145],[5.84,51.131],[5.81,51.118],[5.834,51.1],[5.824,51.092],[5.795,51.09],[5.804,51.077],[5.793,51.059],[5.772,51.06],[5.758,51.034],[5.776,51.022],[5.766,50.998],[5.72,50.962],[5.756,50.958],[5.726,50.921],[5.725,50.911],[5.698,50.91],[5.683,50.889],[5.644,50.871],[5.639,50.846],[5.656,50.824],[5.694,50.812],[5.697,50.775],[5.683,50.761],[5.695,50.755],[5.72,50.765],[5.739,50.757],[5.747,50.77],[5.777,50.783],[5.807,50.756],[5.845,50.765],[5.863,50.764],[5.886,50.77],[5.89,50.756],[5.921,50.751],[5.931,50.757],[5.969,50.761],[5.974,50.755],[6.021,50.754],[6.028,50.774],[5.975,50.798],[5.985,50.81],[6.004,50.801],[6.025,50.814],[6.016,50.834],[6.019,50.846],[6.077,50.861],[6.088,50.872],[6.075,50.893],[6.082,50.922],[6.018,50.935],[6.017,50.983],[5.966,50.98],[5.955,50.988],[5.897,50.975],[5.906,51.002],[5.879,51.018],[5.878,51.038],[5.887,51.052],[5.913,51.067],[5.938,51.035],[5.969,51.047],[5.97,51.061],[6.01,51.091],[6.036,51.097],[6.076,51.119],[6.092,51.135],[6.126,51.145],[6.163,51.149],[6.175,51.158],[6.139,51.173],[6.181,51.186],[6.165,51.194],[6.122,51.181],[6.113,51.175],[6.082,51.172],[6.073,51.183],[6.068,51.221],[6.086,51.223],[6.073,51.243],[6.086,51.248],[6.125,51.275],[6.145,51.298],[6.169,51.333],[6.19,51.339],[6.226,51.36],[6.214,51.39],[6.205,51.4],[6.224,51.475],[6.213,51.491],[6.212,51.513],[6.2,51.527],[6.177,51.539],[6.157,51.567],[6.131,51.581],[6.121,51.593],[6.091,51.606],[6.117,51.657],[6.088,51.66],[6.037,51.673],[6.026,51.709],[6.045,51.717],[5.994,51.738],[5.955,51.738],[5.953,51.748],[5.991,51.766],[5.979,51.798],[5.945,51.824],[5.963,51.837],[5.987,51.831],[6.036,51.843],[6.055,51.852],[6.063,51.865],[6.107,51.848],[6.136,51.847],[6.167,51.841],[6.167,51.862],[6.145,51.87],[6.137,51.886],[6.11,51.895],[6.157,51.905],[6.191,51.892],[6.184,51.883],[6.215,51.868],[6.262,51.868],[6.28,51.874],[6.301,51.865],[6.306,51.849],[6.345,51.851],[6.363,51.835],[6.407,51.828],[6.408,51.854],[6.388,51.862],[6.391,51.873],[6.429,51.865],[6.451,51.865],[6.465,51.855],[6.5,51.862],[6.501,51.868],[6.556,51.882],[6.586,51.894],[6.638,51.904],[6.675,51.916],[6.693,51.915],[6.722,51.896],[6.754,51.913],[6.77,51.916],[6.794,51.935],[6.799,51.959],[6.829,51.964],[6.827,51.994],[6.811,51.998],[6.753,52.028],[6.714,52.04],[6.688,52.04],[6.696,52.07],[6.735,52.075],[6.751,52.085],[6.761,52.119],[6.823,52.118],[6.855,52.12],[6.873,52.133],[6.882,52.156],[6.916,52.178],[6.951,52.181],[6.989,52.227],[7.019,52.225],[7.061,52.235],[7.066,52.241],[7.042,52.256],[7.028,52.278],[7.026,52.292],[7.048,52.32],[7.056,52.338],[7.072,52.352],[7.072,52.373],[7.059,52.399],[7.036,52.403],[7.022,52.423],[7.011,52.429],[6.994,52.465],[6.978,52.466],[6.962,52.445],[6.942,52.435],[6.862,52.451],[6.854,52.46],[6.775,52.46],[6.753,52.464],[6.698,52.486],[6.705,52.521],[6.681,52.553],[6.716,52.549],[6.726,52.563],[6.753,52.559],[6.767,52.564],[6.719,52.589],[6.727,52.615],[6.71,52.628]]],[[[5.167,52.999],[5.297,53.067],[5.344,53.074],[5.375,53.091],[5.389,53.077],[5.393,53.063],[5.376,53.055],[5.408,53.02],[5.397,53.003],[5.413,52.964],[5.401,52.939],[5.407,52.91],[5.371,52.899],[5.357,52.884],[5.366,52.874],[5.398,52.857],[5.426,52.848],[5.454,52.855],[5.5,52.846],[5.545,52.833],[5.567,52.834],[5.585,52.849],[5.618,52.851],[5.645,52.86],[5.658,52.844],[5.685,52.846],[5.713,52.838],[5.66,52.828],[5.595,52.763],[5.593,52.663],[5.616,52.651],[5.652,52.617],[5.628,52.605],[5.559,52.592],[5.501,52.556],[5.456,52.55],[5.448,52.535],[5.428,52.538],[5.44,52.556],[5.469,52.57],[5.456,52.594],[5.4,52.649],[5.361,52.674],[5.354,52.678],[5.302,52.692],[5.287,52.691],[5.299,52.703],[5.288,52.715],[5.283,52.74],[5.258,52.753],[5.193,52.755],[5.18,52.741],[5.146,52.742],[5.124,52.756],[5.118,52.77],[5.104,52.774],[5.114,52.846],[5.049,52.924],[5.039,52.931],[5.167,52.999]]],[[[5.287,52.69],[5.305,52.69],[5.36,52.674],[5.399,52.649],[5.455,52.594],[5.467,52.572],[5.446,52.561],[5.438,52.555],[5.427,52.538],[5.426,52.53],[5.435,52.511],[5.395,52.491],[5.378,52.487],[5.258,52.435],[5.162,52.4],[5.129,52.383],[5.138,52.326],[5.077,52.34],[5.037,52.334],[5.035,52.345],[5.01,52.353],[4.974,52.372],[5.014,52.385],[5.052,52.413],[5.067,52.413],[5.075,52.429],[5.092,52.437],[5.094,52.441],[5.095,52.448],[5.133,52.46],[5.103,52.467],[5.093,52.452],[5.093,52.44],[5.087,52.437],[5.078,52.437],[5.049,52.439],[5.048,52.455],[5.068,52.472],[5.059,52.486],[5.086,52.504],[5.066,52.523],[5.055,52.545],[5.031,52.567],[5.02,52.596],[5.019,52.63],[5.046,52.642],[5.068,52.635],[5.089,52.643],[5.128,52.62],[5.159,52.623],[5.175,52.633],[5.199,52.636],[5.236,52.657],[5.246,52.686],[5.287,52.69]]],[[[3.519,51.407],[3.44,51.388],[3.431,51.392],[3.379,51.377],[3.37,51.372],[3.374,51.349],[3.385,51.334],[3.358,51.315],[3.377,51.302],[3.37,51.292],[3.407,51.257],[3.45,51.242],[3.528,51.246],[3.515,51.287],[3.563,51.296],[3.576,51.288],[3.591,51.304],[3.641,51.288],[3.658,51.29],[3.694,51.276],[3.756,51.269],[3.795,51.256],[3.789,51.246],[3.791,51.214],[3.821,51.209],[3.86,51.211],[3.889,51.223],[3.886,51.2],[3.959,51.216],[3.986,51.234],[4.006,51.242],[4.037,51.246],[4.058,51.243],[4.166,51.293],[4.235,51.348],[4.206,51.374],[4.173,51.373],[4.139,51.361],[4.113,51.361],[4.053,51.366],[4.018,51.401],[3.974,51.407],[3.964,51.399],[3.968,51.386],[3.955,51.367],[3.917,51.361],[3.867,51.336],[3.807,51.338],[3.789,51.35],[3.723,51.35],[3.687,51.371],[3.641,51.376],[3.585,51.388],[3.548,51.405],[3.519,51.407]]],[[[5.543,53.439],[5.495,53.444],[5.376,53.423],[5.251,53.404],[5.201,53.395],[5.186,53.388],[5.165,53.37],[5.151,53.35],[5.191,53.348],[5.221,53.364],[5.257,53.373],[5.293,53.37],[5.357,53.388],[5.384,53.402],[5.404,53.405],[5.459,53.405],[5.476,53.417],[5.541,53.433],[5.543,53.439]]],[[[4.879,53.157],[4.861,53.183],[4.841,53.183],[4.798,53.141],[4.758,53.106],[4.724,53.068],[4.709,53.022],[4.714,52.997],[4.737,52.989],[4.785,53.002],[4.819,53.029],[4.847,53.034],[4.873,53.055],[4.873,53.065],[4.897,53.079],[4.9,53.125],[4.908,53.135],[4.893,53.152],[4.879,53.157]]],[[[4.237,51.634],[4.201,51.639],[4.169,51.654],[4.156,51.676],[4.168,51.683],[4.189,51.683],[4.22,51.674],[4.232,51.661],[4.281,51.655],[4.339,51.665],[4.357,51.671],[4.368,51.685],[4.394,51.694],[4.388,51.669],[4.373,51.657],[4.35,51.648],[4.317,51.646],[4.237,51.634]]],[[[5.1,53.301],[5.064,53.308],[5.036,53.302],[4.961,53.271],[4.933,53.255],[4.854,53.222],[4.845,53.208],[4.869,53.204],[4.88,53.215],[4.919,53.216],[4.979,53.249],[4.972,53.265],[5.033,53.281],[5.063,53.294],[5.1,53.301]]],[[[5.731,53.462],[5.695,53.462],[5.668,53.471],[5.652,53.47],[5.616,53.453],[5.616,53.44],[5.643,53.427],[5.68,53.425],[5.703,53.43],[5.73,53.443],[5.805,53.438],[5.891,53.451],[5.931,53.468],[5.771,53.46],[5.731,53.462]]],[[[6.379,53.507],[6.388,53.517],[6.345,53.516],[6.289,53.509],[6.229,53.505],[6.15,53.497],[6.119,53.483],[6.115,53.463],[6.161,53.472],[6.197,53.472],[6.252,53.478],[6.274,53.489],[6.33,53.501],[6.338,53.506],[6.379,53.507]]],[[[4.404,51.699],[4.398,51.711],[4.406,51.722],[4.439,51.716],[4.467,51.715],[4.53,51.701],[4.588,51.712],[4.619,51.723],[4.636,51.717],[4.602,51.697],[4.527,51.685],[4.49,51.683],[4.426,51.697],[4.404,51.699]]],[[[5.139,52.325],[5.184,52.335],[5.221,52.334],[5.285,52.317],[5.313,52.303],[5.291,52.297],[5.248,52.312],[5.197,52.309],[5.174,52.304],[5.148,52.315],[5.139,52.325]]]]}}